{"Latitude": "Latitude", "PlaceName": "PlaceName", "Longitude": "Longitude", "Rating": "Rating"}
{"Latitude": "37.7724609", "PlaceName": "Big Chef Tom\u2019s Belly Burgers", "Longitude": "-122.4165268", "Rating": "4.0"}
{"Latitude": "37.8108359747", "PlaceName": "Sea Lion Center", "Longitude": "-122.411076227", "Rating": "3.5"}
{"Latitude": "37.7865549", "PlaceName": "Socola Chocolatier + Barista", "Longitude": "-122.395089", "Rating": "4.5"}
{"Latitude": "37.8043546701", "PlaceName": "Russian Hill Park", "Longitude": "-122.421426773", "Rating": "5.0"}
{"Latitude": "37.7411842346", "PlaceName": "Chenery House", "Longitude": "-122.425041199", "Rating": "4.0"}
{"Latitude": "37.7669237221", "PlaceName": "San Francisco Botanical Garden", "Longitude": "-122.466648817", "Rating": "4.5"}
{"Latitude": "37.806652", "PlaceName": "Marina Green Park", "Longitude": "-122.439116", "Rating": "4.5"}
{"Latitude": "37.768204378", "PlaceName": "Shakespeare Garden", "Longitude": "-122.466959953", "Rating": "4.5"}
{"Latitude": "37.80836836", "PlaceName": "West Bluff Picnic Area & Beach", "Longitude": "-122.471343688", "Rating": "4.5"}
{"Latitude": "37.739", "PlaceName": "Parkside Square", "Longitude": "-122.48294", "Rating": "4.5"}
{"Latitude": "37.75276", "PlaceName": "Basa Seafood Express", "Longitude": "-122.41338", "Rating": "4.5"}
{"Latitude": "37.7936084569", "PlaceName": "San Francisco Railway Museum and Gift Shop", "Longitude": "-122.393543869", "Rating": "4.0"}
{"Latitude": "37.78574", "PlaceName": "Yerba Buena Center For the Arts", "Longitude": "-122.40255", "Rating": "4.0"}
{"Latitude": "37.7920450263", "PlaceName": "Saint Mary\u2019s Square", "Longitude": "-122.405247136", "Rating": "3.5"}
{"Latitude": "37.7980517935", "PlaceName": "Vallejo Street Steps", "Longitude": "-122.41288662", "Rating": "4.5"}
{"Latitude": "37.769816", "PlaceName": "California Academy of Sciences", "Longitude": "-122.466041", "Rating": "4.0"}
{"Latitude": "37.8026313782", "PlaceName": "Fine Arts Museums Of San Francisco", "Longitude": "-122.454650879", "Rating": "1.0"}
{"Latitude": "37.784927", "PlaceName": "Legion of Honor", "Longitude": "-122.500802", "Rating": "4.5"}
{"Latitude": "37.77757", "PlaceName": "Double Decker", "Longitude": "-122.42407", "Rating": "3.5"}
{"Latitude": "37.8059352974", "PlaceName": "Crissy Field", "Longitude": "-122.452283724", "Rating": "5.0"}
{"Latitude": "37.781669", "PlaceName": "South Park", "Longitude": "-122.394462", "Rating": "4.0"}
{"Latitude": "37.7969398", "PlaceName": "Sidney Walton Park", "Longitude": "-122.3994827", "Rating": "4.5"}
{"Latitude": "37.7916357456", "PlaceName": "La Fusi\u00f3n", "Longitude": "-122.403691573", "Rating": "4.5"}
{"Latitude": "37.756465616", "PlaceName": "Oakhurst Lane", "Longitude": "-122.461509705", "Rating": "5.0"}
{"Latitude": "37.78643", "PlaceName": "Museum of the African Diaspora", "Longitude": "-122.40152", "Rating": "3.0"}
{"Latitude": "37.8108298027", "PlaceName": "SS Jeremiah O\u2019Brien", "Longitude": "-122.417876787", "Rating": "5.0"}
{"Latitude": "37.8028398116", "PlaceName": "Fay Park", "Longitude": "-122.417910577", "Rating": "4.5"}
{"Latitude": "37.7812980238", "PlaceName": "Fort Miley", "Longitude": "-122.503159046", "Rating": "5.0"}
{"Latitude": "37.7894251122", "PlaceName": "Pier 24", "Longitude": "-122.387841042", "Rating": "4.5"}
{"Latitude": "37.74997", "PlaceName": "Juri Commons", "Longitude": "-122.42138", "Rating": "4.0"}
{"Latitude": "37.7928369", "PlaceName": "Academy of Art University Automobile Museum", "Longitude": "-122.423544", "Rating": "5.0"}
{"Latitude": "37.780077", "PlaceName": "Lands End Trail", "Longitude": "-122.510029", "Rating": "5.0"}
{"Latitude": "37.7701518685", "PlaceName": "Mission Creek Dog Park", "Longitude": "-122.398797646", "Rating": "3.5"}
{"Latitude": "37.7763457776", "PlaceName": "Alamo Square", "Longitude": "-122.434719801", "Rating": "4.5"}
{"Latitude": "37.7731018066", "PlaceName": "Olafur Eliasson Exhibit", "Longitude": "-122.411277771", "Rating": "5.0"}
{"Latitude": "37.71804", "PlaceName": "John McLaren Park", "Longitude": "-122.41413", "Rating": "4.0"}
{"Latitude": "37.8098502999", "PlaceName": "San Francisco Maritime National Park Association", "Longitude": "-122.422325878", "Rating": "5.0"}
{"Latitude": "37.7932735", "PlaceName": "343 Sansome Rooftop Deck", "Longitude": "-122.4012213", "Rating": "4.5"}
{"Latitude": "37.7891276", "PlaceName": "Crocker Galleria Roof Terrace", "Longitude": "-122.4029268", "Rating": "4.0"}
{"Latitude": "37.7811510761", "PlaceName": "Box Kitchen", "Longitude": "-122.406365051", "Rating": "4.5"}
{"Latitude": "37.7848389899", "PlaceName": "Super Duper Burgers", "Longitude": "-122.403624148", "Rating": "4.0"}
{"Latitude": "37.785944", "PlaceName": "Contemporary Jewish Museum", "Longitude": "-122.403802", "Rating": "3.5"}
{"Latitude": "37.8063245", "PlaceName": "Maritime Museum - San Francsco Maritime National Historical Park", "Longitude": "-122.4239816", "Rating": "4.5"}
{"Latitude": "37.756377", "PlaceName": "Grandview Park", "Longitude": "-122.470933", "Rating": "5.0"}
{"Latitude": "37.7686793176", "PlaceName": "Strawberry Hill", "Longitude": "-122.475618124", "Rating": "5.0"}
{"Latitude": "37.78374", "PlaceName": "State Bird Provisions", "Longitude": "-122.433005", "Rating": "4.5"}
{"Latitude": "37.7690887", "PlaceName": "Buena Vista Park", "Longitude": "-122.4383392", "Rating": "4.0"}
{"Latitude": "37.7948013693", "PlaceName": "Portsmouth Square", "Longitude": "-122.40567416", "Rating": "3.5"}
{"Latitude": "37.7650262858", "PlaceName": "Starboard SF", "Longitude": "-122.418006957", "Rating": "5.0"}
{"Latitude": "37.7877664572", "PlaceName": "Rove Kitchen", "Longitude": "-122.412939659", "Rating": "4.5"}
{"Latitude": "37.817272", "PlaceName": "Treasure Island Museum", "Longitude": "-122.370666", "Rating": "5.0"}
{"Latitude": "37.7543144481", "PlaceName": "The Spice Jar", "Longitude": "-122.409359223", "Rating": "4.5"}
{"Latitude": "37.7830597444", "PlaceName": "Saigon Sandwich", "Longitude": "-122.417336797", "Rating": "4.5"}
{"Latitude": "37.802280426", "PlaceName": "Coit Tower", "Longitude": "-122.405845642", "Rating": "4.0"}
{"Latitude": "37.777786", "PlaceName": "Sutro Heights Park", "Longitude": "-122.511097", "Rating": "5.0"}
{"Latitude": "37.7788276672", "PlaceName": "Little Skillet", "Longitude": "-122.394065857", "Rating": "4.0"}
{"Latitude": "37.7710762024", "PlaceName": "Crepes A Go Go", "Longitude": "-122.413414001", "Rating": "4.5"}
{"Latitude": "37.73511602", "PlaceName": "Glen Canyon Park", "Longitude": "-122.439943627", "Rating": "4.5"}
{"Latitude": "37.759462595", "PlaceName": "Friends of Esprit Park", "Longitude": "-122.389464229", "Rating": "4.0"}
{"Latitude": "37.7866113", "PlaceName": "Jessie Square", "Longitude": "-122.4032581", "Rating": "3.5"}
{"Latitude": "37.8019507974", "PlaceName": "George Sterling Park", "Longitude": "-122.419665903", "Rating": "4.5"}
{"Latitude": "37.8083445132", "PlaceName": "Boudin Museum and Bakery Tour", "Longitude": "-122.415130958", "Rating": "3.5"}
{"Latitude": "37.7249720088", "PlaceName": "Balboa Park", "Longitude": "-122.444320009", "Rating": "4.0"}
{"Latitude": "37.7416", "PlaceName": "Edgehill Mountain Park", "Longitude": "-122.45924", "Rating": "4.5"}
{"Latitude": "37.79779", "PlaceName": "Octagon House", "Longitude": "-122.42743", "Rating": "4.0"}
{"Latitude": "37.7973404", "PlaceName": "Hyde Vallejo Mini Park", "Longitude": "-122.4186783", "Rating": "3.5"}
{"Latitude": "37.780077", "PlaceName": "Lands End", "Longitude": "-122.510029", "Rating": "5.0"}
{"Latitude": "37.77685", "PlaceName": "Linden Hayes Fine Art", "Longitude": "-122.42221", "Rating": "4.5"}
{"Latitude": "37.7731018066", "PlaceName": "Lee Friedlander", "Longitude": "-122.411277771", "Rating": "4.5"}
{"Latitude": "37.78573", "PlaceName": "National Japanese American Historical Society", "Longitude": "-122.42956", "Rating": "4.0"}
{"Latitude": "37.7815814", "PlaceName": "The International Art Museum of America", "Longitude": "-122.4108475", "Rating": "3.5"}
{"Latitude": "37.759764", "PlaceName": "Dolores Park", "Longitude": "-122.427052", "Rating": "4.5"}
{"Latitude": "37.7432657659", "PlaceName": "Bernal Heights Park", "Longitude": "-122.414903641", "Rating": "4.5"}
{"Latitude": "37.7720775242", "PlaceName": "The Panhandle", "Longitude": "-122.445748115", "Rating": "4.0"}
{"Latitude": "37.8014766916", "PlaceName": "Exploratorium After Dark", "Longitude": "-122.398552895", "Rating": "4.0"}
{"Latitude": "37.7642690469", "PlaceName": "Randall Museum", "Longitude": "-122.438335419", "Rating": "4.5"}
{"Latitude": "37.7748759595", "PlaceName": "Popeyes Chicken & Biscuits", "Longitude": "-122.437956662", "Rating": "3.5"}
{"Latitude": "37.809945", "PlaceName": "USS Pampanito", "Longitude": "-122.416455", "Rating": "4.5"}
{"Latitude": "37.7692198008", "PlaceName": "Queen Wilhelmina Tulip Garden", "Longitude": "-122.508269995", "Rating": "4.5"}
{"Latitude": "37.7180747986", "PlaceName": "Orizaba Shields Rocky Outcrop Park", "Longitude": "-122.462722778", "Rating": "4.5"}
{"Latitude": "37.7837949246", "PlaceName": "Tenderloin Museum", "Longitude": "-122.41407685", "Rating": "4.0"}
{"Latitude": "37.770518", "PlaceName": "Golden Gate Park", "Longitude": "-122.479878", "Rating": "4.5"}
{"Latitude": "37.8075606376", "PlaceName": "San Francisco Maritime National Historical Park", "Longitude": "-122.420573831", "Rating": "4.5"}
{"Latitude": "37.75082", "PlaceName": "Golden Gate Heights Park", "Longitude": "-122.46898", "Rating": "4.5"}
{"Latitude": "37.7913371759", "PlaceName": "Rincon Park", "Longitude": "-122.390012741", "Rating": "4.5"}
{"Latitude": "37.7877464", "PlaceName": "One Kearny", "Longitude": "-122.4039383", "Rating": "4.5"}
{"Latitude": "37.79742", "PlaceName": "Allyne Park", "Longitude": "-122.42759", "Rating": "4.5"}
{"Latitude": "37.7143297344", "PlaceName": "Cayuga Playground", "Longitude": "-122.449589297", "Rating": "4.5"}
{"Latitude": "37.7832717896", "PlaceName": "Richmond Recreation Center", "Longitude": "-122.477973938", "Rating": "3.5"}
{"Latitude": "37.7827904165", "PlaceName": "Raymond Kimbell Playground", "Longitude": "-122.435116768", "Rating": "4.0"}
{"Latitude": "37.797305755", "PlaceName": "Umami Burger", "Longitude": "-122.435245514", "Rating": "4.0"}
{"Latitude": "37.7340302255", "PlaceName": "Dorothy W Erskine Park", "Longitude": "-122.439818298", "Rating": "4.0"}
{"Latitude": "37.7521564122", "PlaceName": "Twin Peaks", "Longitude": "-122.447519302", "Rating": "4.5"}
{"Latitude": "37.8073766387", "PlaceName": "Museo ItaloAmericano", "Longitude": "-122.431125641", "Rating": "4.5"}
{"Latitude": "37.7974822372", "PlaceName": "The Soapbox Cafe", "Longitude": "-122.418650687", "Rating": "4.5"}
{"Latitude": "37.7960579842", "PlaceName": "Sue Bierman Park", "Longitude": "-122.398903593", "Rating": "5.0"}
{"Latitude": "37.7824636932", "PlaceName": "Lord George", "Longitude": "-122.392651699", "Rating": "4.5"}
{"Latitude": "37.7586961538", "PlaceName": "Pemberton Steps", "Longitude": "-122.446477264", "Rating": "4.5"}
{"Latitude": "37.7689846343", "PlaceName": "Speedway Meadow", "Longitude": "-122.490262985", "Rating": "4.5"}
{"Latitude": "37.7892737259", "PlaceName": "Hops & Hominy", "Longitude": "-122.405591254", "Rating": "4.0"}
{"Latitude": "37.80047", "PlaceName": "The Poet\u2019s Gallery", "Longitude": "-122.40731", "Rating": "4.0"}
{"Latitude": "37.7466087341", "PlaceName": "Hawk Hill Park", "Longitude": "-122.468276978", "Rating": "4.0"}
{"Latitude": "37.752654", "PlaceName": "El Farolito", "Longitude": "-122.4181915", "Rating": "4.0"}
{"Latitude": "37.7707147385", "PlaceName": "Lily Pond", "Longitude": "-122.461466789", "Rating": "4.0"}
{"Latitude": "37.7463960779", "PlaceName": "Upper Douglass Dog Park", "Longitude": "-122.438257777", "Rating": "4.0"}
{"Latitude": "37.7708282471", "PlaceName": "Huffaker Park", "Longitude": "-122.390716553", "Rating": "5.0"}
{"Latitude": "37.798122", "PlaceName": "Stones Throw", "Longitude": "-122.418579", "Rating": "4.5"}
{"Latitude": "37.800862", "PlaceName": "The Presidio", "Longitude": "-122.459043", "Rating": "4.5"}
{"Latitude": "37.7979301661", "PlaceName": "Ina Coolbrith Park", "Longitude": "-122.413710058", "Rating": "4.5"}
{"Latitude": "37.734052", "PlaceName": "Park and Dog Park", "Longitude": "-122.4223233", "Rating": "4.5"}
{"Latitude": "37.7902966074", "PlaceName": "Plaza Park", "Longitude": "-122.43749422", "Rating": "4.5"}
{"Latitude": "37.7510199", "PlaceName": "Noe Court Playground", "Longitude": "-122.43848", "Rating": "3.5"}
{"Latitude": "37.7915115", "PlaceName": "WaaTeeKaa Train", "Longitude": "-122.3964691", "Rating": "4.5"}
{"Latitude": "37.7982299", "PlaceName": "The Beat Museum", "Longitude": "-122.40615", "Rating": "4.0"}
{"Latitude": "37.8062423441", "PlaceName": "Great Meadow Park at Fort Mason", "Longitude": "-122.428887003", "Rating": "3.5"}
{"Latitude": "37.8066101", "PlaceName": "Museum of Vision", "Longitude": "-122.4196777", "Rating": "4.0"}
{"Latitude": "37.7506130876", "PlaceName": "West Sunset Playground", "Longitude": "-122.498127702", "Rating": "4.0"}
{"Latitude": "37.786063", "PlaceName": "San Francisco Museum and Historical Society", "Longitude": "-122.405316", "Rating": "2.0"}
{"Latitude": "37.8097593784", "PlaceName": "Gulf of the Farrallones National Marine Sanctuary", "Longitude": "-122.476327568", "Rating": "4.5"}
{"Latitude": "37.7774216111", "PlaceName": "Victoria Manalo Draves Park", "Longitude": "-122.407023962", "Rating": "3.5"}
{"Latitude": "37.7605343157", "PlaceName": "Mount Sutro", "Longitude": "-122.457743354", "Rating": "4.5"}
{"Latitude": "37.7828298816", "PlaceName": "Cable Car Restaurant", "Longitude": "-122.4448657", "Rating": "3.5"}
{"Latitude": "37.7683570375", "PlaceName": "Golden Gate Park Children\u2019s Playground", "Longitude": "-122.457175255", "Rating": "4.5"}
{"Latitude": "37.7960447769", "PlaceName": "Woh Hei Yuen Park", "Longitude": "-122.40999206", "Rating": "4.0"}
{"Latitude": "37.7579189398", "PlaceName": "Seward Street Slides", "Longitude": "-122.439813774", "Rating": "4.5"}
{"Latitude": "37.7595249563", "PlaceName": "McKinley Square", "Longitude": "-122.404070199", "Rating": "4.5"}
{"Latitude": "37.7431639584", "PlaceName": "Bernal Heights Hill", "Longitude": "-122.414216995", "Rating": "4.5"}
{"Latitude": "37.7899538529", "PlaceName": "Hopwater Distribution", "Longitude": "-122.411338985", "Rating": "4.5"}
{"Latitude": "37.7786412146", "PlaceName": "Taco Bell", "Longitude": "-122.392781787", "Rating": "4.0"}
{"Latitude": "37.7940216", "PlaceName": "Empire Park", "Longitude": "-122.4047012", "Rating": "4.5"}
{"Latitude": "37.713768", "PlaceName": "Fort Funston", "Longitude": "-122.499361", "Rating": "5.0"}
{"Latitude": "37.7411804", "PlaceName": "Pritikin Museum at Chenery House", "Longitude": "-122.4250412", "Rating": "3.0"}
{"Latitude": "37.7902966074", "PlaceName": "Alta Plaza Park", "Longitude": "-122.43749422", "Rating": "4.5"}
{"Latitude": "37.76601", "PlaceName": "Cole Valley Dog Park", "Longitude": "-122.44969", "Rating": "4.0"}
{"Latitude": "37.8048834712", "PlaceName": "Jack Early Park", "Longitude": "-122.408157739", "Rating": "4.5"}
{"Latitude": "37.7877202", "PlaceName": "Deluxe Burgers", "Longitude": "-122.4136277", "Rating": "4.0"}
{"Latitude": "37.7518498152", "PlaceName": "Potrero del Sol Park", "Longitude": "-122.40422979", "Rating": "4.0"}
{"Latitude": "37.7127338201", "PlaceName": "Crocker Amazon Playground", "Longitude": "-122.431617156", "Rating": "3.5"}
{"Latitude": "37.80666", "PlaceName": "Aquatic Park", "Longitude": "-122.42055", "Rating": "4.5"}
{"Latitude": "37.7847485", "PlaceName": "Brannan Street Wharf", "Longitude": "-122.3878941", "Rating": "5.0"}
{"Latitude": "37.7641503052", "PlaceName": "Kidpower Park", "Longitude": "-122.420289516", "Rating": "3.5"}
{"Latitude": "37.789338", "PlaceName": "Sun Terrace", "Longitude": "-122.398127", "Rating": "5.0"}
{"Latitude": "37.7795003289", "PlaceName": "Civic Center Plaza", "Longitude": "-122.41758585", "Rating": "3.5"}
{"Latitude": "37.76503", "PlaceName": "Jackson Playground", "Longitude": "-122.3987", "Rating": "3.5"}
{"Latitude": "37.7540374766", "PlaceName": "Starr King Open Space", "Longitude": "-122.400260798", "Rating": "4.0"}
{"Latitude": "37.7652326194", "PlaceName": "Corona Heights Park", "Longitude": "-122.439369238", "Rating": "4.5"}
{"Latitude": "37.8079755309", "PlaceName": "Madame Tussauds San Francisco", "Longitude": "-122.41428282", "Rating": "4.0"}
{"Latitude": "37.7817745534", "PlaceName": "Jefferson Square Park", "Longitude": "-122.425714988", "Rating": "3.5"}
{"Latitude": "37.8054691", "PlaceName": "Military Intelligence Service Historic Learning Center", "Longitude": "-122.4687185", "Rating": "5.0"}
{"Latitude": "37.7404829777", "PlaceName": "Walter Haas Park and Playground", "Longitude": "-122.434515953", "Rating": "4.0"}
{"Latitude": "37.7934603643", "PlaceName": "Pier 14", "Longitude": "-122.391741934", "Rating": "4.5"}
{"Latitude": "37.7848643788", "PlaceName": "Yerba Buena Gardens", "Longitude": "-122.402581933", "Rating": "4.5"}
{"Latitude": "37.79171", "PlaceName": "Huntington Park", "Longitude": "-122.41172", "Rating": "4.5"}
{"Latitude": "37.8066279497", "PlaceName": "The Interval At Long Now", "Longitude": "-122.432121163", "Rating": "4.0"}
{"Latitude": "37.8092414665", "PlaceName": "Mus\u00e9e M\u00e9canique", "Longitude": "-122.415847778", "Rating": "4.5"}
{"Latitude": "37.7974891663", "PlaceName": "Bootleg Tavern", "Longitude": "-122.42339325", "Rating": "4.5"}
{"Latitude": "37.7727125268", "PlaceName": "Dahlia Dell at Golden Gate Park", "Longitude": "-122.457988279", "Rating": "5.0"}
{"Latitude": "37.7916042474", "PlaceName": "Lafayette Park", "Longitude": "-122.427656422", "Rating": "4.5"}
{"Latitude": "37.7428872138", "PlaceName": "McCoppin Square", "Longitude": "-122.48016648", "Rating": "4.0"}
{"Latitude": "37.7763444185", "PlaceName": "China Basin Park", "Longitude": "-122.389851138", "Rating": "3.5"}
{"Latitude": "37.7357320642", "PlaceName": "Gregangelo & Velocity Arts & Entertainment", "Longitude": "-122.463708", "Rating": "5.0"}
{"Latitude": "37.75421", "PlaceName": "Warm Water Cove", "Longitude": "-122.38597", "Rating": "4.0"}
{"Latitude": "37.8002066489", "PlaceName": "Washington Square Park", "Longitude": "-122.410401778", "Rating": "4.5"}
{"Latitude": "37.757043913", "PlaceName": "Museum of Craft and Design", "Longitude": "-122.388037294", "Rating": "3.5"}
{"Latitude": "37.78729", "PlaceName": "Jack In The Box", "Longitude": "-122.41014", "Rating": "3.0"}
{"Latitude": "37.8082294979", "PlaceName": "Hyde Street Pier", "Longitude": "-122.424334488", "Rating": "4.5"}
{"Latitude": "37.73669", "PlaceName": "Mount Davidson Park", "Longitude": "-122.45393", "Rating": "4.5"}
{"Latitude": "37.7352599", "PlaceName": "Pine Lake Park", "Longitude": "-122.48412", "Rating": "4.5"}
{"Latitude": "37.7878614192", "PlaceName": "Union Square Park", "Longitude": "-122.407629377", "Rating": "4.0"}
{"Latitude": "37.793766", "PlaceName": "Chinese Historical Society of America", "Longitude": "-122.408851", "Rating": "4.0"}
{"Latitude": "37.7854003906", "PlaceName": "Museum of Russian Culture", "Longitude": "-122.440917969", "Rating": "5.0"}
{"Latitude": "37.7417995781", "PlaceName": "West Portal Playground", "Longitude": "-122.465436459", "Rating": "3.5"}
{"Latitude": "37.79488", "PlaceName": "Cable Car Museum", "Longitude": "-122.41192", "Rating": "4.5"}
{"Latitude": "37.7931947261", "PlaceName": "Wells Fargo History Museum", "Longitude": "-122.402694225", "Rating": "4.5"}
{"Latitude": "37.8305225961", "PlaceName": "Golden Gate National Recreation Area", "Longitude": "-122.506957054", "Rating": "5.0"}
{"Latitude": "37.7882957", "PlaceName": "Arion Press", "Longitude": "-122.4735497", "Rating": "5.0"}
{"Latitude": "37.79589", "PlaceName": "Maritime Plaza Park", "Longitude": "-122.4005", "Rating": "5.0"}
{"Latitude": "37.7796308", "PlaceName": "Asian Art Museum", "Longitude": "-122.4165973", "Rating": "4.5"}
{"Latitude": "37.7426300795", "PlaceName": "Upper Noe Recreation Center", "Longitude": "-122.428580589", "Rating": "4.0"}
{"Latitude": "37.7557577938", "PlaceName": "Potrero Hill Recreation Center", "Longitude": "-122.397797182", "Rating": "4.5"}
{"Latitude": "37.77437", "PlaceName": "Mission Creek Parks", "Longitude": "-122.39166", "Rating": "4.5"}
{"Latitude": "37.7264197916", "PlaceName": "Lake Merced", "Longitude": "-122.501614094", "Rating": "4.0"}
{"Latitude": "37.7382879", "PlaceName": "South Sunset Park", "Longitude": "-122.4980761", "Rating": "4.5"}
{"Latitude": "37.7972294552", "PlaceName": "Sydney G. Walton Square", "Longitude": "-122.399175167", "Rating": "4.0"}
{"Latitude": "37.7909708881", "PlaceName": "Alta Plaza Playground", "Longitude": "-122.438121539", "Rating": "5.0"}
{"Latitude": "37.7943094", "PlaceName": "Pacific Heritage Museum", "Longitude": "-122.4033299", "Rating": "4.0"}
{"Latitude": "37.8009002347", "PlaceName": "The Walt Disney Family Museum", "Longitude": "-122.45850563", "Rating": "4.5"}
{"Latitude": "37.7179379761", "PlaceName": "Brooks Park", "Longitude": "-122.466411442", "Rating": "4.0"}
{"Latitude": "37.7606506", "PlaceName": "GLBT History Museum", "Longitude": "-122.4356537", "Rating": "4.0"}
{"Latitude": "37.80796", "PlaceName": "Believe It Or Not! Odditorium", "Longitude": "-122.41546", "Rating": "3.5"}
{"Latitude": "37.7478298545", "PlaceName": "Douglass Playground", "Longitude": "-122.438140288", "Rating": "4.0"}
{"Latitude": "37.75432383", "PlaceName": "Parque Ninos Unidos", "Longitude": "-122.41363796", "Rating": "4.5"}
{"Latitude": "37.7710135281", "PlaceName": "de Young Friday Nights", "Longitude": "-122.468233332", "Rating": "4.5"}
{"Latitude": "37.709762871", "PlaceName": "Candlestick Point State Recreation Area", "Longitude": "-122.381768059", "Rating": "4.5"}
{"Latitude": "37.8357312643", "PlaceName": "Bay Area Discovery Museum", "Longitude": "-122.476688414", "Rating": "4.5"}
{"Latitude": "37.7643547058", "PlaceName": "Mission Dolores", "Longitude": "-122.427490234", "Rating": "4.5"}
{"Latitude": "37.758540287", "PlaceName": "Garden for the Environment", "Longitude": "-122.46382221", "Rating": "5.0"}
{"Latitude": "37.8012594581", "PlaceName": "Moscone Recreation Center", "Longitude": "-122.433103099", "Rating": "4.5"}
{"Latitude": "37.786787", "PlaceName": "California Historical Society", "Longitude": "-122.401545", "Rating": "4.0"}
{"Latitude": "37.771705", "PlaceName": "Rainbow Falls", "Longitude": "-122.470069", "Rating": "4.0"}
{"Latitude": "37.787682", "PlaceName": "Roam Artisan Burgers", "Longitude": "-122.433853", "Rating": "4.0"}
{"Latitude": "37.7369279833", "PlaceName": "Holly Park", "Longitude": "-122.42025733", "Rating": "4.5"}
{"Latitude": "37.805193", "PlaceName": "The Mexican Museum", "Longitude": "-122.432242", "Rating": "3.0"}
{"Latitude": "37.78868258", "PlaceName": "Presidio Heights Playground", "Longitude": "-122.449771017", "Rating": "5.0"}
{"Latitude": "37.7734545936", "PlaceName": "Koshland Park", "Longitude": "-122.427339021", "Rating": "4.0"}
{"Latitude": "37.7717064206", "PlaceName": "Hippie Hill", "Longitude": "-122.457346916", "Rating": "4.0"}
{"Latitude": "37.7951583862", "PlaceName": "Transamerica Redwood Park", "Longitude": "-122.402732849", "Rating": "4.5"}
{"Latitude": "37.7697686", "PlaceName": "No No Burger", "Longitude": "-122.4120492", "Rating": "4.5"}
{"Latitude": "37.7650335784", "PlaceName": "Franklin Square Park", "Longitude": "-122.409407574", "Rating": "3.5"}
{"Latitude": "37.7598609924", "PlaceName": "Tank Hill", "Longitude": "-122.448249817", "Rating": "4.5"}
{"Latitude": "37.7831199", "PlaceName": "Children\u2019s Creativity Museum", "Longitude": "-122.40228", "Rating": "4.0"}
{"Latitude": "37.8013317306", "PlaceName": "Presidio Visitor Center", "Longitude": "-122.455906469", "Rating": "5.0"}
{"Latitude": "37.7542496", "PlaceName": "Piano Studio", "Longitude": "-122.4387817", "Rating": "5.0"}
{"Latitude": "37.7711372375", "PlaceName": "De Young Sculpture Garden", "Longitude": "-122.46913147", "Rating": "4.5"}
{"Latitude": "37.8078885376", "PlaceName": "Hot Spud", "Longitude": "-122.414005101", "Rating": "4.5"}
{"Latitude": "37.7623455918", "PlaceName": "Chez Maman", "Longitude": "-122.397163", "Rating": "4.5"}
{"Latitude": "37.803195", "PlaceName": "Pioneer Park", "Longitude": "-122.405877", "Rating": "4.5"}
{"Latitude": "37.7182645351", "PlaceName": "Bayview Park", "Longitude": "-122.394607365", "Rating": "4.5"}
{"Latitude"